{
    "links": {
        "self": "http://www.neowsapp.com/rest/v1/neo/3842688?api_key=iIulBulltgU6a56xZRHN4H3l9WmuAYTsLGpBGhQ2"
    },
    "id": "3842688",
    "neo_reference_id": "3842688",
    "name": "(2019 LQ)",
    "designation": "2019 LQ",
    "nasa_jpl_url": "http://ssd.jpl.nasa.gov/sbdb.cgi?sstr=3842688",
    "absolute_magnitude_h": 24.0,
    "estimated_diameter": {
        "kilometers": {
            "estimated_diameter_min": 0.0421264611,
            "estimated_diameter_max": 0.0941976306
        },
        "meters": {
            "estimated_diameter_min": 42.1264610556,
            "estimated_diameter_max": 94.1976305719
        },
        "miles": {
            "estimated_diameter_min": 0.0261761612,
            "estimated_diameter_max": 0.0585316759
        },
        "feet": {
            "estimated_diameter_min": 138.2101784897,
            "estimated_diameter_max": 309.0473542854
        }
    },
    "is_potentially_hazardous_asteroid": false,
    "close_approach_data": [
        {
            "close_approach_date": "2019-05-23",
            "close_approach_date_full": "2019-May-23 00:41",
            "epoch_date_close_approach": 1558572060000,
            "relative_velocity": {
                "kilometers_per_second": "12.5713125309",
                "kilometers_per_hour": "45256.7251114045",
                "miles_per_hour": "28120.7690004724"
            },
            "miss_distance": {
                "astronomical": "0.188812472",
                "lunar": "73.448051608",
                "kilometers": "28245943.64063464",
                "miles": "17551215.517612432"
            },
            "orbiting_body": "Earth"
        }
    ],
    "orbital_data": {
        "orbit_id": "1",
        "orbit_determination_date": "2019-06-03 09:42:04",
        "first_observation_date": "2019-06-01",
        "last_observation_date": "2019-06-03",
        "data_arc_in_days": 2,
        "observations_used": 13,
        "orbit_uncertainty": "9",
        "minimum_orbit_intersection": ".187267",
        "jupiter_tisserand_invariant": "4.647",
        "epoch_osculation": "2458636.5",
        "eccentricity": ".199536502079498",
        "semi_major_axis": "1.398417759202923",
        "inclination": "24.26227873983896",
        "ascending_node_longitude": "247.9729212233641",
        "orbital_period": "604.023482376959",
        "perihelion_distance": "1.119382371085722",
        "perihelion_argument": "302.4954599158471",
        "aphelion_distance": "1.677453147320124",
        "perihelion_time": "2458567.684965335726",
        "mean_anomaly": "41.01398902845642",
        "mean_motion": ".5960033185851062",
        "equinox": "J2000",
        "orbit_class": {
            "orbit_class_type": "AMO",
            "orbit_class_description": "Near-Earth asteroid orbits similar to that of 1221 Amor",
            "orbit_class_range": "1.017 AU < q (perihelion) < 1.3 AU"
        }
    },
    "is_sentry_object": false
}